<?xml version="1.0" encoding="UTF-8"?>
<ndm xmlns:xsi="http://www.w3.org/2001/XMLSchema-instance" xsi:noNamespaceSchemaLocation="https://sanaregistry.org/r/ndmxml_unqualified/ndmxml-2.0.0-master-2.0.xsd">
<omm id="CCSDS_OMM_VERS" version="2.0">
<header><CREATION_DATE/><ORIGINATOR/></header><body><segment><metadata><OBJECT_NAME>KUIPER-00008</OBJECT_NAME><OBJECT_ID>2025-088A</OBJECT_ID><CENTER_NAME>EARTH</CENTER_NAME><REF_FRAME>TEME</REF_FRAME><TIME_SYSTEM>UTC</TIME_SYSTEM><MEAN_ELEMENT_THEORY>SGP4</MEAN_ELEMENT_THEORY></metadata><data><meanElements><EPOCH>2025-07-15T14:00:01.000224</EPOCH><MEAN_MOTION>15.12199662</MEAN_MOTION><ECCENTRICITY>.0011655</ECCENTRICITY><INCLINATION>51.8873</INCLINATION><RA_OF_ASC_NODE>88.6136</RA_OF_ASC_NODE><ARG_OF_PERICENTER>34.8026</ARG_OF_PERICENTER><MEAN_ANOMALY>207.3705</MEAN_ANOMALY></meanElements><tleParameters><EPHEMERIS_TYPE>0</EPHEMERIS_TYPE><CLASSIFICATION_TYPE>U</CLASSIFICATION_TYPE><NORAD_CAT_ID>63724</NORAD_CAT_ID><ELEMENT_SET_NO>999</ELEMENT_SET_NO><REV_AT_EPOCH>535</REV_AT_EPOCH><BSTAR>-.3239E-1</BSTAR><MEAN_MOTION_DOT>-.533465E-2</MEAN_MOTION_DOT><MEAN_MOTION_DDOT>0</MEAN_MOTION_DDOT></tleParameters></data></segment></body></omm>
<omm id="CCSDS_OMM_VERS" version="2.0">
<header><CREATION_DATE/><ORIGINATOR/></header><body><segment><metadata><OBJECT_NAME>KUIPER-00009</OBJECT_NAME><OBJECT_ID>2025-088B</OBJECT_ID><CENTER_NAME>EARTH</CENTER_NAME><REF_FRAME>TEME</REF_FRAME><TIME_SYSTEM>UTC</TIME_SYSTEM><MEAN_ELEMENT_THEORY>SGP4</MEAN_ELEMENT_THEORY></metadata><data><meanElements><EPOCH>2025-07-15T14:00:01.000224</EPOCH><MEAN_MOTION>15.28407207</MEAN_MOTION><ECCENTRICITY>.0011277</ECCENTRICITY><INCLINATION>51.8661</INCLINATION><RA_OF_ASC_NODE>83.9373</RA_OF_ASC_NODE><ARG_OF_PERICENTER>47.0601</ARG_OF_PERICENTER><MEAN_ANOMALY>359.9045</MEAN_ANOMALY></meanElements><tleParameters><EPHEMERIS_TYPE>0</EPHEMERIS_TYPE><CLASSIFICATION_TYPE>U</CLASSIFICATION_TYPE><NORAD_CAT_ID>63725</NORAD_CAT_ID><ELEMENT_SET_NO>999</ELEMENT_SET_NO><REV_AT_EPOCH>454</REV_AT_EPOCH><BSTAR>-.4569E-1</BSTAR><MEAN_MOTION_DOT>-.1169201E-1</MEAN_MOTION_DOT><MEAN_MOTION_DDOT>0</MEAN_MOTION_DDOT></tleParameters></data></segment></body></omm>
<omm id="CCSDS_OMM_VERS" version="2.0">
<header><CREATION_DATE/><ORIGINATOR/></header><body><segment><metadata><OBJECT_NAME>KUIPER-00010</OBJECT_NAME><OBJECT_ID>2025-088C</OBJECT_ID><CENTER_NAME>EARTH</CENTER_NAME><REF_FRAME>TEME</REF_FRAME><TIME_SYSTEM>UTC</TIME_SYSTEM><MEAN_ELEMENT_THEORY>SGP4</MEAN_ELEMENT_THEORY></metadata><data><meanElements><EPOCH>2025-07-15T02:28:22.822752</EPOCH><MEAN_MOTION>15.35713259</MEAN_MOTION><ECCENTRICITY>.0009914</ECCENTRICITY><INCLINATION>51.8637</INCLINATION><RA_OF_ASC_NODE>86.0934</RA_OF_ASC_NODE><ARG_OF_PERICENTER>36.5649</ARG_OF_PERICENTER><MEAN_ANOMALY>323.6012</MEAN_ANOMALY></meanElements><tleParameters><EPHEMERIS_TYPE>0</EPHEMERIS_TYPE><CLASSIFICATION_TYPE>U</CLASSIFICATION_TYPE><NORAD_CAT_ID>63726</NORAD_CAT_ID><ELEMENT_SET_NO>999</ELEMENT_SET_NO><REV_AT_EPOCH>1209</REV_AT_EPOCH><BSTAR>.27601E-3</BSTAR><MEAN_MOTION_DOT>.9372E-4</MEAN_MOTION_DOT><MEAN_MOTION_DDOT>0</MEAN_MOTION_DDOT></tleParameters></data></segment></body></omm>
<omm id="CCSDS_OMM_VERS" version="2.0">
<header><CREATION_DATE/><ORIGINATOR/></header><body><segment><metadata><OBJECT_NAME>KUIPER-00011</OBJECT_NAME><OBJECT_ID>2025-088D</OBJECT_ID><CENTER_NAME>EARTH</CENTER_NAME><REF_FRAME>TEME</REF_FRAME><TIME_SYSTEM>UTC</TIME_SYSTEM><MEAN_ELEMENT_THEORY>SGP4</MEAN_ELEMENT_THEORY></metadata><data><meanElements><EPOCH>2025-07-15T09:17:09.370464</EPOCH><MEAN_MOTION>15.35317093</MEAN_MOTION><ECCENTRICITY>.0011773</ECCENTRICITY><INCLINATION>51.8571</INCLINATION><RA_OF_ASC_NODE>84.9405</RA_OF_ASC_NODE><ARG_OF_PERICENTER>44.8311</ARG_OF_PERICENTER><MEAN_ANOMALY>315.3624</MEAN_ANOMALY></meanElements><tleParameters><EPHEMERIS_TYPE>0</EPHEMERIS_TYPE><CLASSIFICATION_TYPE>U</CLASSIFICATION_TYPE><NORAD_CAT_ID>63727</NORAD_CAT_ID><ELEMENT_SET_NO>999</ELEMENT_SET_NO><REV_AT_EPOCH>1227</REV_AT_EPOCH><BSTAR>.29943E-3</BSTAR><MEAN_MOTION_DOT>.10075E-3</MEAN_MOTION_DOT><MEAN_MOTION_DDOT>0</MEAN_MOTION_DDOT></tleParameters></data></segment></body></omm>
<omm id="CCSDS_OMM_VERS" version="2.0">
<header><CREATION_DATE/><ORIGINATOR/></header><body><segment><metadata><OBJECT_NAME>KUIPER-00012</OBJECT_NAME><OBJECT_ID>2025-088E</OBJECT_ID><CENTER_NAME>EARTH</CENTER_NAME><REF_FRAME>TEME</REF_FRAME><TIME_SYSTEM>UTC</TIME_SYSTEM><MEAN_ELEMENT_THEORY>SGP4</MEAN_ELEMENT_THEORY></metadata><data><meanElements><EPOCH>2025-07-15T09:15:21.430944</EPOCH><MEAN_MOTION>15.35355296</MEAN_MOTION><ECCENTRICITY>.0011739</ECCENTRICITY><INCLINATION>51.8562</INCLINATION><RA_OF_ASC_NODE>84.9219</RA_OF_ASC_NODE><ARG_OF_PERICENTER>45.8793</ARG_OF_PERICENTER><MEAN_ANOMALY>314.3156</MEAN_ANOMALY></meanElements><tleParameters><EPHEMERIS_TYPE>0</EPHEMERIS_TYPE><CLASSIFICATION_TYPE>U</CLASSIFICATION_TYPE><NORAD_CAT_ID>63728</NORAD_CAT_ID><ELEMENT_SET_NO>999</ELEMENT_SET_NO><REV_AT_EPOCH>1222</REV_AT_EPOCH><BSTAR>.28398E-3</BSTAR><MEAN_MOTION_DOT>.9546E-4</MEAN_MOTION_DOT><MEAN_MOTION_DDOT>0</MEAN_MOTION_DDOT></tleParameters></data></segment></body></omm>
<omm id="CCSDS_OMM_VERS" version="2.0">
<header><CREATION_DATE/><ORIGINATOR/></header><body><segment><metadata><OBJECT_NAME>KUIPER-00013</OBJECT_NAME><OBJECT_ID>2025-088F</OBJECT_ID><CENTER_NAME>EARTH</CENTER_NAME><REF_FRAME>TEME</REF_FRAME><TIME_SYSTEM>UTC</TIME_SYSTEM><MEAN_ELEMENT_THEORY>SGP4</MEAN_ELEMENT_THEORY></metadata><data><meanElements><EPOCH>2025-07-15T14:00:01.000224</EPOCH><MEAN_MOTION>15.26598355</MEAN_MOTION><ECCENTRICITY>.0008359</ECCENTRICITY><INCLINATION>51.8682</INCLINATION><RA_OF_ASC_NODE>84.4069</RA_OF_ASC_NODE><ARG_OF_PERICENTER>34.0830</ARG_OF_PERICENTER><MEAN_ANOMALY>136.8325</MEAN_ANOMALY></meanElements><tleParameters><EPHEMERIS_TYPE>0</EPHEMERIS_TYPE><CLASSIFICATION_TYPE>U</CLASSIFICATION_TYPE><NORAD_CAT_ID>63729</NORAD_CAT_ID><ELEMENT_SET_NO>999</ELEMENT_SET_NO><REV_AT_EPOCH>439</REV_AT_EPOCH><BSTAR>-.14007E-1</BSTAR><MEAN_MOTION_DOT>-.355486E-2</MEAN_MOTION_DOT><MEAN_MOTION_DDOT>0</MEAN_MOTION_DDOT></tleParameters></data></segment></body></omm>
<omm id="CCSDS_OMM_VERS" version="2.0">
<header><CREATION_DATE/><ORIGINATOR/></header><body><segment><metadata><OBJECT_NAME>KUIPER-00014</OBJECT_NAME><OBJECT_ID>2025-088G</OBJECT_ID><CENTER_NAME>EARTH</CENTER_NAME><REF_FRAME>TEME</REF_FRAME><TIME_SYSTEM>UTC</TIME_SYSTEM><MEAN_ELEMENT_THEORY>SGP4</MEAN_ELEMENT_THEORY></metadata><data><meanElements><EPOCH>2025-07-15T14:00:01.000224</EPOCH><MEAN_MOTION>15.25187356</MEAN_MOTION><ECCENTRICITY>.0010822</ECCENTRICITY><INCLINATION>51.8665</INCLINATION><RA_OF_ASC_NODE>85.2307</RA_OF_ASC_NODE><ARG_OF_PERICENTER>35.0773</ARG_OF_PERICENTER><MEAN_ANOMALY>107.9930</MEAN_ANOMALY></meanElements><tleParameters><EPHEMERIS_TYPE>0</EPHEMERIS_TYPE><CLASSIFICATION_TYPE>U</CLASSIFICATION_TYPE><NORAD_CAT_ID>63730</NORAD_CAT_ID><ELEMENT_SET_NO>999</ELEMENT_SET_NO><REV_AT_EPOCH>447</REV_AT_EPOCH><BSTAR>.20702E-2</BSTAR><MEAN_MOTION_DOT>.52788E-3</MEAN_MOTION_DOT><MEAN_MOTION_DDOT>0</MEAN_MOTION_DDOT></tleParameters></data></segment></body></omm>
<omm id="CCSDS_OMM_VERS" version="2.0">
<header><CREATION_DATE/><ORIGINATOR/></header><body><segment><metadata><OBJECT_NAME>KUIPER-00015</OBJECT_NAME><OBJECT_ID>2025-088H</OBJECT_ID><CENTER_NAME>EARTH</CENTER_NAME><REF_FRAME>TEME</REF_FRAME><TIME_SYSTEM>UTC</TIME_SYSTEM><MEAN_ELEMENT_THEORY>SGP4</MEAN_ELEMENT_THEORY></metadata><data><meanElements><EPOCH>2025-07-15T14:00:01.000224</EPOCH><MEAN_MOTION>15.04613185</MEAN_MOTION><ECCENTRICITY>.0010397</ECCENTRICITY><INCLINATION>51.8802</INCLINATION><RA_OF_ASC_NODE>91.7399</RA_OF_ASC_NODE><ARG_OF_PERICENTER>29.4727</ARG_OF_PERICENTER><MEAN_ANOMALY>125.5842</MEAN_ANOMALY></meanElements><tleParameters><EPHEMERIS_TYPE>0</EPHEMERIS_TYPE><CLASSIFICATION_TYPE>U</CLASSIFICATION_TYPE><NORAD_CAT_ID>63731</NORAD_CAT_ID><ELEMENT_SET_NO>999</ELEMENT_SET_NO><REV_AT_EPOCH>421</REV_AT_EPOCH><BSTAR>-.16863E-1</BSTAR><MEAN_MOTION_DOT>-.2325E-2</MEAN_MOTION_DOT><MEAN_MOTION_DDOT>0</MEAN_MOTION_DDOT></tleParameters></data></segment></body></omm>

</ndm>
