KUIPER-00008            
1 63724U 25088A   25196.58334491 -.00533465  00000+0 -32390-1 0  9990
2 63724  51.8873  88.6136 0011655  34.8026 207.3705 15.12199662  5358
KUIPER-00009            
1 63725U 25088B   25196.58334491 -.01169201  00000+0 -45690-1 0  9992
2 63725  51.8661  83.9373 0011277  47.0601 359.9045 15.28407207  4545
KUIPER-00010            
1 63726U 25088C   25196.10304193  .00009372  00000+0  27601-3 0  9990
2 63726  51.8637  86.0934 0009914  36.5649 323.6012 15.35713259 12092
KUIPER-00011            
1 63727U 25088D   25196.38691401  .00010075  00000+0  29943-3 0  9995
2 63727  51.8571  84.9405 0011773  44.8311 315.3624 15.35317093 12277
KUIPER-00012            
1 63728U 25088E   25196.38566471  .00009546  00000+0  28398-3 0  9998
2 63728  51.8562  84.9219 0011739  45.8793 314.3156 15.35355296 12229
KUIPER-00013            
1 63729U 25088F   25196.58334491 -.00355486  00000+0 -14007-1 0  9995
2 63729  51.8682  84.4069 0008359  34.0830 136.8325 15.26598355  4396
KUIPER-00014            
1 63730U 25088G   25196.58334491  .00052788  00000+0  20702-2 0  9994
2 63730  51.8665  85.2307 0010822  35.0773 107.9930 15.25187356  4472
KUIPER-00015            
1 63731U 25088H   25196.58334491 -.00232500  00000+0 -16863-1 0  9991
2 63731  51.8802  91.7399 0010397  29.4727 125.5842 15.04613185  4213
